GEOSCAN 1 (RS92S1)
1 64880U 25155E   26018.96889228  .00012583  00000-0  47978-3 0  9990
2 64880  97.4383 347.5306 0008161   3.6600 356.4697 15.26796541 57975
239ALFEROV (RS61S)
1 64881U 25155F   26018.97197119  .00015193  00000-0  55965-3 0  9998
2 64881  97.4390 347.7035 0007901   5.3616 354.7706 15.27896387 57985
CSTP-4.3
1 64882U 25155G   26018.92245979  .00010893  00000-0  42301-3 0  9994
2 64882  97.4404 347.4677 0007704   3.7489 356.3806 15.26229093 57962
CSTP-4.2
1 64883U 25155H   26018.92274041  .00010149  00000-0  39456-3 0  9998
2 64883  97.4399 347.4574 0007580   2.8868 357.2412 15.26213278 57966
CSTP-4.4
1 64884U 25155J   26018.92220102  .00010003  00000-0  38876-3 0  9992
2 64884  97.4391 347.4626 0007891 357.1539   2.9653 15.26223442 57968
ASTROLINE-N3
1 64886U 25155L   26018.96418321  .00027302  00000-0  89007-3 0  9992
2 64886  97.4330 348.0523 0007554   1.0155 359.1100 15.31755246 58010
ASTROLINE-N2
1 64888U 25155N   26018.95941251  .00026952  00000-0  87739-3 0  9996
2 64888  97.4335 348.0753 0006911 358.3619   1.7599 15.31808529 58016
GEOSCAN 2 (RS92S2)
1 64890U 25155Q   26018.92569843  .00012274  00000-0  46385-3 0  9993
2 64890  97.4380 347.5758 0006959 351.9529   8.1597 15.27109113 57970
GEOSCAN-5 (RS92S5)
1 64891U 25155R   26018.92772727  .00015153  00000-0  55235-3 0  9994
2 64891  97.4381 347.7368 0007043  14.6243 345.5199 15.28248433 57989
GEOSCAN-4 (RS92S4)
1 64892U 25155S   26018.92307913  .00015592  00000-0  56695-3 0  9994
2 64892  97.4384 347.7477 0007099  15.1041 345.0409 15.28323246 57982
GEOSCAN-3 (RS92S3)
1 64893U 25155T   26018.93796725  .00018001  00000-0  63529-3 0  9991
2 64893  97.4378 347.8719 0007018  19.1337 341.0166 15.29270923 57990
INNOSAT3 (RS92S0)
1 64894U 25155U   26018.91069438  .00028424  00000-0  90199-3 0  9997
2 64894  97.4359 348.1931 0006921  27.6931 332.4678 15.32616538 58012
CSTP-4.1
1 64895U 25155V   26018.85678196  .00010822  00000-0  42032-3 0  9994
2 64895  97.4400 347.3932 0007529   3.5297 356.5993 15.26228358 57945
RSP-03
1 65732U 98067XL  26018.86742015  .00245727  00000-0  11567-2 0  9992
2 65732  51.6242 305.6665 0005717 119.2626 240.8948 15.81853633 19012
YOTSUBA-KULOVER
1 65941U 98067XN  26018.87552042  .00085937  00000-0  83726-3 0  9996
2 65941  51.6288 312.5215 0004244 125.7424 234.3967 15.65496146 15664
BOTAN
1 65942U 98067XP  26018.88501368  .00162089  00000-0  11467-2 0  9999
2 65942  51.6260 310.3198 0004986 128.6435 231.5010 15.72952020 15695
E-KAGAKU-1
1 65943U 98067XQ  26018.81164204  .00086350  00000-0  84263-3 0  9998
2 65943  51.6302 312.8524 0002777 128.8646 231.2598 15.65459467 15658
SILVERSAT
1 66909U 98067XV  26018.81830400  .00084587  00000-0  11161-2 0  9995
2 66909  51.6307 317.3890 0003702  88.3010 271.8406 15.57653699  7389
POLYTECH UNIVERSE-3 (RS46S)
1 57191U 23091AB  26018.93709258  .00005019  00000-0  25412-3 0  9990
2 57191  97.5282  77.6901 0014640 290.4584  69.5078 15.17368613141300
CSTP-1.1
1 57202U 23091AN  26018.93684593  .00005283  00000-0  26776-3 0  9994
2 57202  97.5348  78.5827 0008245 268.2345  91.7944 15.17373386141318
CSTP-1.2
1 57186U 23091W   26018.95489584  .00008594  00000-0  33582-3 0  9991
2 57186  97.5370  83.8925 0018103 258.9159 101.0043 15.25973566141674
PICO-1B-3
1 60564U 24149DA  26018.81649740  .00254045  00000-0  29135-2 0  9999
2 60564  97.6807 113.6900 0005626 273.9191  86.1423 15.61228983 78779
PICO-1B-4
1 60567U 24149DD  26018.79242631  .00448592  00000-0  32905-2 0  9998
2 60567  97.6845 115.1373 0007086 286.2876  73.7607 15.71811020 78838
PICO-1B-6
1 60569U 24149DF  26018.79814829  .00400141  00000-0  28904-2 0  9996
2 60569  97.6749 115.2536 0007121 284.4846  75.5626 15.72315297 78840
PICO-1B-8
1 60570U 24149DG  26018.81848049  .00429974  00000-0  35783-2 0  9990
2 60570  97.6792 114.4428 0007289 287.6696  72.3768 15.68802874 78810
PICO-1B-9
1 60568U 24149DE  26018.76598037  .00473703  00000-0  36994-2 0  9994
2 60568  97.6767 114.5104 0007180 288.6494  71.3988 15.70227502 78813
MULE-4T
1 67286U 25313AQ  26018.92432849  .00009141  00000-0  41106-3 0  9991
2 67286  97.4108  96.0534 0010940 153.2795 206.9007 15.21288033  3250
SCORPION (RS89S)
1 67293U 25313AX  26018.92278402  .00004380  00000-0  19821-3 0  9991
2 67293  97.4106  96.0537 0012155 145.8910 214.3109 15.21359728  3251
GALAPAGOS-UTE-SWSU
1 67279U 25313AH  26018.93804683  .00007848  00000-0  36276-3 0  9997
2 67279  97.4099  96.0383 0015322 162.4320 197.7448 15.20337062  3250
SAKHACUBE-CHOLBON (RS18S)
1 67290U 25313AU  26018.92231286  .00009521  00000-0  42522-3 0  9993
2 67290  97.4107  96.0566 0010566 154.4086 205.7675 15.21516454  3258
LUCA-1 (RS90S)
1 67287U 25313AR  26018.92342251  .00009140  00000-0  40940-3 0  9993
2 67287  97.4108  96.0551 0010848 155.0572 205.1190 15.21422840  3250
QMR-KWT-2 (RS95S)
1 67291U 25313AV  26018.92169717  .00013196  00000-0  58646-3 0  9990
2 67291  97.4107  96.0575 0010439 154.4992 205.6761 15.21597953  3252
LOBACHEVSKY (RS83S)
1 67282U 25313AL  26018.92698974  .00005885  00000-0  26731-3 0  9998
2 67282  97.4102  96.0399 0011743 157.0493 203.1270 15.21088874  3250
NASBSAT-1
1 67289U 25313AT  26018.92196736  .00012983  00000-0  57693-3 0  9992
2 67289  97.4109  96.0575 0010709 155.4927 204.6820 15.21602886  3257
NASBSAT-2
1 67285U 25313AP  26018.92487785  .00008253  00000-0  37134-3 0  9998
2 67285  97.4086  96.0380 0011245 158.2480 201.9236 15.21296503  3258
HORS-5
1 67283U 25313AM  26018.92582400  .00008636  00000-0  38900-3 0  9993
2 67283  97.4109  96.0440 0011625 156.9080 203.2680 15.21240417  3253
AIST-2T 1
1 67253U 25313F   26018.91218999  .00053690  00000-0  53424-3 0  9996
2 67253  97.1025  96.2740 0010612 161.2881 198.8772 15.65488383  3325
AIST-2T 2
1 67254U 25313G   26018.91397194  .00046644  00000-0  47244-3 0  9996
2 67254  97.1025  96.2716 0010199 163.4948 196.6647 15.65074749  3310
MORSAT-1 (RS96S)
1 90006U          25362.61156250  .00023360  00000-0  10621-2 0 00008
2 90006 097.4083 075.0759 0011953 237.7531 125.8000 15.20580905000100
